{
  "type": "FeatureCollection",
  "features": [
    {
      "type": "Feature",
      "properties": {
        "norad_id": 30760,
        "name": "FENGYUN 1C DEB",
        "group": "fengyun-1c-debris",
        "lat": -15.68178649911706,
        "lon": 173.7669276635915,
        "alt_km": 893.6513938778126,
        "timestamp": "2025-12-25T22:42:17.289977+00:00",
        "meta_object_name": "FENGYUN 1C DEB",
        "meta_object_id": "1999-025ATW",
        "meta_epoch": "2025-12-24T23:33:19.940256",
        "meta_mean_motion": 14.05191303,
        "meta_eccentricity": 0.00523086,
        "meta_inclination": 98.8229,
        "meta_ra_of_asc_node": 355.3278,
        "meta_arg_of_pericenter": 308.9159,
        "meta_mean_anomaly": 50.7351,
        "meta_ephemeris_type": 0,
        "meta_classification_type": "U",
        "meta_norad_cat_id": 30760,
        "meta_element_set_no": 999,
        "meta_rev_at_epoch": 96394,
        "meta_bstar": 0.00026410391,
        "meta_mean_motion_dot": 3.88e-06,
        "meta_mean_motion_ddot": 0,
        "tle_line1": "1 30760U 99025ATW 25358.98148079  .00000388  00000+0  26410-3 0  9994",
        "tle_line2": "2 30760  98.8229 355.3278 0052308 308.9159  50.7351 14.05191303963941"
      },
      "geometry": {
        "type": "Point",
        "coordinates": [
          173.7669276635915,
          -15.68178649911706
        ]
      }
    },
    {
      "type": "Feature",
      "properties": {
        "norad_id": 30761,
        "name": "FENGYUN 1C DEB",
        "group": "fengyun-1c-debris",
        "lat": -38.80495830904399,
        "lon": -66.14632114384008,
        "alt_km": 736.6535102700363,
        "timestamp": "2025-12-25T22:42:17.289987+00:00",
        "meta_object_name": "FENGYUN 1C DEB",
        "meta_object_id": "1999-025ATX",
        "meta_epoch": "2025-12-25T01:08:41.725824",
        "meta_mean_motion": 14.35844041,
        "meta_eccentricity": 0.00836992,
        "meta_inclination": 98.9666,
        "meta_ra_of_asc_node": 285.6254,
        "meta_arg_of_pericenter": 277.5738,
        "meta_mean_anomaly": 81.5945,
        "meta_ephemeris_type": 0,
        "meta_classification_type": "U",
        "meta_norad_cat_id": 30761,
        "meta_element_set_no": 999,
        "meta_rev_at_epoch": 97918,
        "meta_bstar": 0.0010317297,
        "meta_mean_motion_dot": 3.062e-05,
        "meta_mean_motion_ddot": 0,
        "tle_line1": "1 30761U 99025ATX 25359.04770516  .00003062  00000+0  10317-2 0  9990",
        "tle_line2": "2 30761  98.9666 285.6254 0083699 277.5738  81.5945 14.35844041979189"
      },
      "geometry": {
        "type": "Point",
        "coordinates": [
          -66.14632114384008,
          -38.80495830904399
        ]
      }
    },
    {
      "type": "Feature",
      "properties": {
        "norad_id": 30762,
        "name": "FENGYUN 1C DEB",
        "group": "fengyun-1c-debris",
        "lat": 38.56487381490236,
        "lon": 177.46567891687903,
        "alt_km": 961.9681179398067,
        "timestamp": "2025-12-25T22:42:17.289999+00:00",
        "meta_object_name": "FENGYUN 1C DEB",
        "meta_object_id": "1999-025ATY",
        "meta_epoch": "2025-12-24T17:41:52.326816",
        "meta_mean_motion": 13.98113979,
        "meta_eccentricity": 0.01973022,
        "meta_inclination": 98.8763,
        "meta_ra_of_asc_node": 349.1388,
        "meta_arg_of_pericenter": 261.87,
        "meta_mean_anomaly": 281.0282,
        "meta_ephemeris_type": 0,
        "meta_classification_type": "U",
        "meta_norad_cat_id": 30762,
        "meta_element_set_no": 999,
        "meta_rev_at_epoch": 95805,
        "meta_bstar": 0.00050242304,
        "meta_mean_motion_dot": 7.99e-06,
        "meta_mean_motion_ddot": 0,
        "tle_line1": "1 30762U 99025ATY 25358.73741119  .00000799  00000+0  50242-3 0  9999",
        "tle_line2": "2 30762  98.8763 349.1388 0197302 261.8700 281.0282 13.98113979958054"
      },
      "geometry": {
        "type": "Point",
        "coordinates": [
          177.46567891687903,
          38.56487381490236
        ]
      }
    },
    {
      "type": "Feature",
      "properties": {
        "norad_id": 30763,
        "name": "FENGYUN 1C DEB",
        "group": "fengyun-1c-debris",
        "lat": 37.14641211343574,
        "lon": -100.89818037590838,
        "alt_km": 684.7403401867132,
        "timestamp": "2025-12-25T22:42:17.290011+00:00",
        "meta_object_name": "FENGYUN 1C DEB",
        "meta_object_id": "1999-025ATZ",
        "meta_epoch": "2025-12-25T04:06:52.966368",
        "meta_mean_motion": 14.61572611,
        "meta_eccentricity": 0.0024532,
        "meta_inclination": 98.8915,
        "meta_ra_of_asc_node": 71.4586,
        "meta_arg_of_pericenter": 232.8829,
        "meta_mean_anomaly": 156.3422,
        "meta_ephemeris_type": 0,
        "meta_classification_type": "U",
        "meta_norad_cat_id": 30763,
        "meta_element_set_no": 999,
        "meta_rev_at_epoch": 97326,
        "meta_bstar": 0.0045287,
        "meta_mean_motion_dot": 0.00022607,
        "meta_mean_motion_ddot": 0,
        "tle_line1": "1 30763U 99025ATZ 25359.17144637  .00022607  00000+0  45287-2 0  9995",
        "tle_line2": "2 30763  98.8915  71.4586 0024532 232.8829 156.3422 14.61572611973266"
      },
      "geometry": {
        "type": "Point",
        "coordinates": [
          -100.89818037590838,
          37.14641211343574
        ]
      }
    },
    {
      "type": "Feature",
      "properties": {
        "norad_id": 30764,
        "name": "FENGYUN 1C DEB",
        "group": "fengyun-1c-debris",
        "lat": 5.9710572455143,
        "lon": -27.94790991851181,
        "alt_km": 503.60880179547166,
        "timestamp": "2025-12-25T22:42:17.290021+00:00",
        "meta_object_name": "FENGYUN 1C DEB",
        "meta_object_id": "1999-025AUA",
        "meta_epoch": "2025-12-25T10:07:12.986112",
        "meta_mean_motion": 15.29848583,
        "meta_eccentricity": 0.0076474,
        "meta_inclination": 98.7801,
        "meta_ra_of_asc_node": 332.3595,
        "meta_arg_of_pericenter": 127.0874,
        "meta_mean_anomaly": 233.7385,
        "meta_ephemeris_type": 0,
        "meta_classification_type": "U",
        "meta_norad_cat_id": 30764,
        "meta_element_set_no": 999,
        "meta_rev_at_epoch": 1416,
        "meta_bstar": 0.0011158,
        "meta_mean_motion_dot": 0.00035296,
        "meta_mean_motion_ddot": 0,
        "tle_line1": "1 30764U 99025AUA 25359.42167808  .00035296  00000+0  11158-2 0  9997",
        "tle_line2": "2 30764  98.7801 332.3595 0076474 127.0874 233.7385 15.29848583 14168"
      },
      "geometry": {
        "type": "Point",
        "coordinates": [
          -27.94790991851181,
          5.9710572455143
        ]
      }
    },
    {
      "type": "Feature",
      "properties": {
        "norad_id": 30765,
        "name": "FENGYUN 1C DEB",
        "group": "fengyun-1c-debris",
        "lat": 43.93055392502907,
        "lon": 37.168583877658556,
        "alt_km": 869.1804619609175,
        "timestamp": "2025-12-25T22:42:17.290031+00:00",
        "meta_object_name": "FENGYUN 1C DEB",
        "meta_object_id": "1999-025AUB",
        "meta_epoch": "2025-12-25T02:15:44.648064",
        "meta_mean_motion": 14.1474846,
        "meta_eccentricity": 0.00687453,
        "meta_inclination": 98.7869,
        "meta_ra_of_asc_node": 44.8994,
        "meta_arg_of_pericenter": 174.2502,
        "meta_mean_anomaly": 215.3424,
        "meta_ephemeris_type": 0,
        "meta_classification_type": "U",
        "meta_norad_cat_id": 30765,
        "meta_element_set_no": 999,
        "meta_rev_at_epoch": 96997,
        "meta_bstar": 0.00076513172,
        "meta_mean_motion_dot": 1.465e-05,
        "meta_mean_motion_ddot": 0,
        "tle_line1": "1 30765U 99025AUB 25359.09426676  .00001465  00000+0  76513-3 0  9990",
        "tle_line2": "2 30765  98.7869  44.8994 0068745 174.2502 215.3424 14.14748460969979"
      },
      "geometry": {
        "type": "Point",
        "coordinates": [
          37.168583877658556,
          43.93055392502907
        ]
      }
    },
    {
      "type": "Feature",
      "properties": {
        "norad_id": 30766,
        "name": "FENGYUN 1C DEB",
        "group": "fengyun-1c-debris",
        "lat": 35.56318282864743,
        "lon": -6.413036049532447,
        "alt_km": 797.9957208427986,
        "timestamp": "2025-12-25T22:42:17.290041+00:00",
        "meta_object_name": "FENGYUN 1C DEB",
        "meta_object_id": "1999-025AUC",
        "meta_epoch": "2025-12-23T22:58:26.298048",
        "meta_mean_motion": 14.09556111,
        "meta_eccentricity": 0.0083444,
        "meta_inclination": 98.6731,
        "meta_ra_of_asc_node": 357.9362,
        "meta_arg_of_pericenter": 42.9494,
        "meta_mean_anomaly": 346.9265,
        "meta_ephemeris_type": 0,
        "meta_classification_type": "U",
        "meta_norad_cat_id": 30766,
        "meta_element_set_no": 999,
        "meta_rev_at_epoch": 62955,
        "meta_bstar": 0.00066973,
        "meta_mean_motion_dot": 1.168e-05,
        "meta_mean_motion_ddot": 0,
        "tle_line1": "1 30766U 99025AUC 25357.95724882  .00001168  00000+0  66973-3 0  9993",
        "tle_line2": "2 30766  98.6731 357.9362 0083444  42.9494 346.9265 14.09556111629553"
      },
      "geometry": {
        "type": "Point",
        "coordinates": [
          -6.413036049532447,
          35.56318282864743
        ]
      }
    }
  ]
}